GREENCUBE               
1 53106U 22080B   24276.98423469 -.00000003  00000+0  00000+0 0  9995
2 53106  70.1390 155.0791 0008198  82.9195 277.2397  6.42557526 52191
CAS-5A (FO-118)         
1 54684U 22167C   24281.52037241  .00110841  00000+0  25290-2 0  9990
2 54684  97.6163  69.9285 0006735 111.6773 248.5192 15.42448648101534
STRATOSAT-TK 1 (RS52S)  
1 57167U 23091B   24281.37630785  .00065906  00000+0  31598-2 0  9990
2 57167  97.5966 334.4790 0014827  94.6711 265.6217 15.18545558 70542
UMKA 1 (RS40S)          
1 57172U 23091G   24281.49605634  .00021890  00000+0  13462-2 0  9998
2 57172  97.5979 332.4883 0017541  98.1860 262.1359 15.09922522 70429
CUBESX-HSE 3 (RS42S)    
1 57178U 23091N   24281.51864803  .00029297  00000+0  16846-2 0  9990
2 57178  97.6009 333.2928 0017621  92.4230 267.9018 15.12293942 70466
MONITOR-4 (RS57S)       
1 57182U 23091S   24281.48299570  .00025947  00000+0  15235-2 0  9993
2 57182  97.6004 332.9615 0018237  93.6896 266.6420 15.11556746 70444
MONITOR-2 (RS39S)       
1 57184U 23091U   24281.39569162  .00018690  00000+0  11585-2 0  9993
2 57184  97.6011 332.8047 0015332  88.8538 271.4448 15.09700946 70426
SVYATOBOR 1 (RS60S)     
1 57187U 23091X   24281.47782987  .00024810  00000+0  14387-2 0  9991
2 57187  97.6013 333.6236 0014502  85.6861 274.6026 15.12069340 70485
VIZARD-METEO (RS38S)    
1 57189U 23091Z   24281.44047946  .00036420  00000+0  19865-2 0  9995
2 57189  97.5999 334.2409 0013017  83.0343 277.2368 15.14195125 70521
NANOZOND 1 (RS49S)      
1 57190U 23091AA  24281.40114601  .00053137  00000+0  25588-2 0  9999
2 57190  97.5972 335.2102 0011144  86.5650 273.6858 15.18503910 70593
POLYTECH-UNIVERSE 3 (R*)
1 57191U 23091AB  24281.46910057  .00017759  00000+0  10985-2 0  9990
2 57191  97.5979 332.5076 0020578 103.8737 256.4783 15.09708641 70427
UTMN 2 (RS27S)          
1 57203U 23091AP  24281.41003790  .00032902  00000+0  18348-2 0  9994
2 57203  97.6003 333.9710 0013656  83.8443 276.4344 15.13421300 70503
ARCCUBE 1 (RS25S)       
1 57205U 23091AR  24281.46320149  .00061035  00000+0  27532-2 0  9995
2 57205  97.5930 335.5961 0010815  86.8673 273.3799 15.20725029 70638
KUZGTU 1 (RS47S)        
1 57217U 23091AV  24281.40862659  .00032688  00000+0  18913-2 0  9994
2 57217  97.5992 332.9810 0017814  94.0476 266.2790 15.12042420 70440
HADES-D (SO-121)        
1 58567U 23174CY  24280.69902833  .00403554  00000+0  49184-2 0  9992
2 58567  97.4360 358.3754 0008945 213.6500 146.4190 15.59115192 50942
SONATE-2                
1 59112U 24043Q   24281.31436107  .00043410  00000+0  18340-2 0  9992
2 59112  97.4907  44.3195 0013322 261.6252  98.3474 15.23030415 32843
MESAT1                  
1 60209U 24125G   24281.35882772  .00042742  00000+0  17969-2 0  9992
2 60209  97.3078 131.4964 0023125 292.6625  67.2167 15.23035507 14461
OOV-CUBE (TUBSAT-30)    
1 60240U 24128F   24281.18250270  .00013166  00000+0  11372-2 0  9993
2 60240  61.9980 212.9981 0018017 341.1536  18.8883 14.97410475 13371
